{"type": "FeatureCollection", "name": "west_linn_willamette_historic_district", "crs": {"type": "name", "properties": {"name": "urn:ogc:def:crs:EPSG::2913"}}, "features": [{"type": "Feature", "properties": {"name": "Willamette Historic District (local designation)", "documentation": "Community Development Code, Ch 25", "source": "geo.westlinnoregon.gov Operational/RegulatoryZones MapServer layer 1, retrieved 2026-10-04"}, "geometry": {"type": "Polygon", "coordinates": [[[7647979.503608927, 617962.4301181138], [7647999.520341203, 617970.0616797954], [7648046.263451442, 617987.7936351746], [7648099.494094491, 617847.5636482984], [7648192.991469815, 617883.0354330689], [7648184.116469815, 617906.3959973752], [7648254.2099737525, 617932.9835958034], [7648324.30347769, 617959.5708661377], [7648354.081364825, 617970.1830708683], [7648360.812007874, 617952.3950131238], [7648387.4658792615, 617962.1929133832], [7648480.868438318, 617997.6597768962], [7648479.093503937, 618002.333989501], [7648520.433398947, 618018.0318241417], [7648601.878608927, 618048.9583333284], [7648679.0751312375, 618078.3540026248], [7648361.4970472455, 618907.1545275599], [7648119.36384514, 618814.0262467265], [7648115.632217854, 618824.4917978942], [7648080.160433069, 618917.9891732335], [7648077.17847769, 618926.5147637725], [7647544.455052495, 618723.9826115519], [7647547.225721791, 618715.7998687625], [7647582.697506562, 618622.3024934381], [7647586.353346452, 618612.3143044561], [7647388.604330704, 618538.6043307036], [7647591.614829391, 618009.9078083932], [7647739.385170609, 618063.7841207385], [7647786.1338582635, 618081.5196850449], [7647916.3759842515, 618130.9320866168], [7647979.503608927, 617962.4301181138]]]}}]}