{"type":"FeatureCollection","name":"tualatin_residential_sub_district","crs":{"type":"name","properties":{"name":"urn:ogc:def:crs:EPSG::2913"}},"features":[{"type":"Feature","properties":{"block":2,"taxlots":["2S124A003000","2S124B001602","2S124B002000"]},"geometry":{"type":"MultiPolygon","coordinates":[[[[7623195.08,633863.17],[7623167.09,633816.02],[7623157.18,633807.31],[7623089.29,633769.33],[7623076.18,633766.38],[7623037.0,633761.12],[7623009.64,633761.33],[7622959.81,633767.51],[7622951.02,633769.6],[7622942.18,633771.46],[7622933.23,633773.09],[7622924.3,633774.45],[7622915.34,633775.57],[7622910.85,633776.04],[7622906.28,633776.46],[7622897.25,633777.08],[7622888.2,633777.46],[7622879.14,633777.59],[7622717.03,633778.0],[7622733.42,633794.6],[7622813.91,633870.57],[7623017.51,633864.73],[7623195.08,633863.17]]],[[[7621918.16,633759.31],[7621899.26,633934.11],[7622091.98,633932.95],[7622075.38,634141.42],[7622092.71,634443.88],[7622364.69,634436.24],[7622345.29,633760.15],[7622362.93,633759.64],[7622362.92,633756.23],[7622183.34,633758.14],[7621918.16,633759.31]]]]}},{"type":"Feature","properties":{"block":3,"taxlots":["2S124A002508"]},"geometry":{"type":"Polygon","coordinates":[[[7623402.54,634215.25],[7623370.07,634145.19],[7623195.08,633863.17],[7623017.51,633864.73],[7623027.88,634226.01],[7623402.54,634215.25]]]}},{"type":"Feature","properties":{"block":15,"taxlots":["2S124BC03800","2S124BC04000","2S124BC04100","2S124BC04101","2S124BC04200","2S124BC04300","2S124BC04400"]},"geometry":{"type":"MultiPolygon","coordinates":[[[[7620718.62,633768.9],[7620707.12,633769.1],[7620707.21,633771.6],[7620656.64,633772.45],[7620656.58,633769.95],[7620612.84,633770.7],[7620612.9,633773.2],[7620594.12,633773.51],[7620599.39,634004.09],[7620723.86,634001.67],[7620721.1,633859.7],[7620718.62,633768.9]]],[[[7620574.15,633773.85],[7620480.94,633775.43],[7620466.43,633790.48],[7620468.19,633864.62],[7620471.4,634006.08],[7620579.38,634003.98],[7620574.15,633773.85]]]]}},{"type":"Feature","properties":{"block":16,"taxlots":["2S124BC02800","2S124BC02900","2S124BC03500","2S124BC03600","2S124BC03700","2S124BC03701","2S124BC80000","2S124BC80001","2S124BC80002"]},"geometry":{"type":"Polygon","coordinates":[[[7620544.11,634066.53],[7620544.1,634066.03],[7620479.74,634067.59],[7620481.9,634156.68],[7620480.4,634156.71],[7620483.2,634272.44],[7620495.33,634289.36],[7620507.94,634300.19],[7620549.81,634304.44],[7620549.94,634309.98],[7620605.73,634315.64],[7620606.24,634310.67],[7620722.72,634322.5],[7620732.24,634319.91],[7620731.2,634280.55],[7620729.7,634280.59],[7620726.54,634160.75],[7620726.04,634160.76],[7620723.44,634062.2],[7620544.11,634066.53]]]}},{"type":"Feature","properties":{"block":17,"taxlots":["2S124BC01708","2S124BC05300","2S124BC05400","2S124BC05500","2S124BC05600","2S124BC05700","2S124BC05800","2S124BC05900","2S124BC06000","2S124BC06100","2S124BC06200","2S124BC06300","2S124BC06400","2S124BC07500","2S124BC07600","2S124BC07700","2S124BC07800","2S124BC07900","2S124BC08000","2S124BC08100","2S124BC08200","2S124BC08300"]},"geometry":{"type":"Polygon","coordinates":[[[7621076.17,634056.18],[7620852.67,634061.09],[7620787.7,634062.24],[7620791.03,634317.89],[7620801.04,634328.78],[7621118.69,634363.18],[7621112.9,634143.6],[7621096.45,634144.03],[7621077.87,634126.4],[7621076.17,634056.18]]]}},{"type":"Feature","properties":{"block":18,"taxlots":["2S124BC01801","2S124BC01802","2S124BC06500","2S124BC06700","2S124BC06800","2S124BC06900","2S124BC07000","2S124BC07100","2S124BC07200","2S124BC07300","2S124BC07400"]},"geometry":{"type":"Polygon","coordinates":[[[7621201.32,634141.56],[7621199.9,634071.47],[7621199.69,634068.21],[7621199.19,634064.98],[7621198.41,634061.8],[7621197.35,634058.7],[7621196.03,634055.71],[7621194.46,634052.84],[7621192.64,634050.12],[7621190.59,634047.57],[7621188.32,634045.21],[7621185.86,634043.06],[7621183.22,634041.13],[7621180.42,634039.43],[7621177.49,634037.99],[7621174.44,634036.8],[7621171.3,634035.89],[7621168.09,634035.26],[7621164.83,634034.9],[7621161.56,634034.83],[7621158.3,634035.05],[7621155.07,634035.55],[7621151.89,634036.33],[7621148.79,634037.39],[7621145.8,634038.71],[7621142.93,634040.28],[7621140.21,634042.1],[7621137.66,634044.15],[7621135.3,634046.42],[7621133.15,634048.88],[7621131.22,634051.52],[7621129.52,634054.32],[7621128.08,634057.25],[7621126.89,634060.3],[7621125.98,634063.44],[7621125.35,634066.65],[7621124.99,634069.9],[7621124.92,634073.18],[7621129.49,634254.65],[7621164.67,634253.76],[7621166.18,634374.98],[7621356.41,634394.88],[7621395.92,634041.93],[7621309.0,634043.74],[7621297.6,634139.61],[7621201.32,634141.56]]]}},{"type":"Feature","properties":{"block":19,"taxlots":["2S124BC00300","2S124BC00500","2S124BC00600","2S124BC00800","2S124BC00901","2S124BC01000","2S124BC01001","2S124BC01100","2S124BC01200","2S124BC90000","2S124BC90001","2S124BC90002","2S124BC90004","2S124BC90005","2S124BC90006","2S124BC90007"]},"geometry":{"type":"Polygon","coordinates":[[[7620473.68,634524.45],[7620476.29,634640.75],[7620575.32,634640.73],[7620707.51,634640.56],[7620707.48,634639.16],[7621085.85,634655.41],[7621214.54,634668.29],[7621209.82,634446.49],[7621005.15,634425.95],[7621005.11,634424.43],[7620942.38,634418.21],[7620880.39,634411.49],[7620815.64,634405.02],[7620815.67,634406.58],[7620764.87,634401.5],[7620701.05,634395.31],[7620701.44,634409.85],[7620569.57,634396.8],[7620569.59,634397.36],[7620485.6,634391.22],[7620470.75,634399.75],[7620473.68,634524.45]]]}},{"type":"Feature","properties":{"block":20,"taxlots":["2S124BC01500","2S124BC01501","2S124BC01502","2S124BC01503","2S124BC01600","2S124BC01690","2S124BC01702","2S124BC01703","2S124BC02701","2S124BC02703"]},"geometry":{"type":"Polygon","coordinates":[[[7621784.63,634288.82],[7621796.67,634178.47],[7621781.76,634176.83],[7621796.88,634038.27],[7621395.36,634046.94],[7621357.08,634388.91],[7621530.39,634407.03],[7621540.69,634402.62],[7621541.2,634398.1],[7621753.61,634420.3],[7621755.36,634418.82],[7621756.65,634407.01],[7621761.42,634407.53],[7621774.52,634287.76],[7621784.63,634288.82]]]}},{"type":"Feature","properties":{"block":22,"taxlots":["2S124B001300","2S124BC01300","2S124BC01301","2S124BC01400"]},"geometry":{"type":"Polygon","coordinates":[[[7621213.77,634632.44],[7621338.44,634618.64],[7621340.38,634680.89],[7621491.01,634695.89],[7621491.77,634858.12],[7621722.21,634898.67],[7621749.74,634904.83],[7621753.74,634905.65],[7621754.9,634905.73],[7621756.79,634905.69],[7621761.11,634905.23],[7621784.33,634902.28],[7621793.8,634901.94],[7621840.19,634905.68],[7621873.64,634912.17],[7621920.69,634917.36],[7621986.38,634919.6],[7622041.14,634907.83],[7622067.8,634902.29],[7622123.91,634892.68],[7622103.09,634838.58],[7622085.26,634801.43],[7622066.23,634760.17],[7622040.19,634716.38],[7622011.64,634674.49],[7621985.17,634692.74],[7621971.17,634675.74],[7621916.17,634627.99],[7621902.17,634619.49],[7621924.83,634588.63],[7621808.76,634534.48],[7621711.15,634508.88],[7621627.34,634495.52],[7621564.62,634485.43],[7621485.74,634477.78],[7621333.56,634461.9],[7621209.89,634449.51],[7621213.77,634632.44]]]}},{"type":"Feature","properties":{"block":23,"taxlots":["2S123AA01000","2S123AA01100","2S123AA01200","2S123AA01300","2S123AA01400","2S123AA01500","2S123AA01600","2S123AA01601","2S123AA01700","2S123AA01800"]},"geometry":{"type":"MultiPolygon","coordinates":[[[[7620354.95,635201.66],[7620154.89,635201.24],[7620155.07,635296.94],[7620145.07,635296.94],[7620145.25,635392.25],[7620355.08,635391.86],[7620355.11,635327.61],[7620354.95,635201.66]]],[[[7620004.52,635201.33],[7619995.22,635201.31],[7619989.11,635201.55],[7619982.88,635202.34],[7619976.82,635203.64],[7619970.89,635205.46],[7619965.14,635207.77],[7619959.61,635210.57],[7619954.34,635213.84],[7619949.37,635217.54],[7619944.73,635221.66],[7619940.5,635226.11],[7619936.6,635231.0],[7619933.16,635236.16],[7619930.18,635241.6],[7619927.67,635247.27],[7619925.66,635253.13],[7619924.18,635259.08],[7619923.1,635265.96],[7619922.67,635273.33],[7619922.84,635384.92],[7620059.08,635384.83],[7620059.07,635392.33],[7620105.25,635392.32],[7620105.18,635206.52],[7620098.7,635201.53],[7620005.18,635201.33],[7620005.18,635200.93],[7620004.52,635201.33]]]]}}]}