{"type": "FeatureCollection", "name": "gresham_north_of_marine_drive", "crs": {"type": "name", "properties": {"name": "urn:ogc:def:crs:EPSG::2913"}}, "features": [{"type": "Feature", "properties": {"street": "NE MARINE DR", "source": "Metro RLIS streets (s1_streets), name MARINE ftype DR, merged centerline"}, "geometry": {"type": "Polygon", "coordinates": [[[7687295.57, 712000.0], [7706331.28, 712000.0], [7706331.28, 695253.8], [7705544.89, 695497.36], [7704438.08, 695827.86], [7704090.67, 695928.85], [7703821.85, 695983.61], [7703587.16, 695997.48], [7703413.27, 695988.59], [7703240.1, 695964.76], [7703002.48, 695915.07], [7702703.87, 695831.06], [7702586.17, 695808.31], [7702474.87, 695785.9], [7702367.84, 695767.77], [7702259.74, 695752.83], [7702148.61, 695733.32], [7702038.71, 695723.29], [7701928.84, 695715.18], [7701818.8, 695709.29], [7701698.44, 695696.7], [7701574.49, 695680.32], [7701219.48, 695673.44], [7701098.6, 695661.2], [7701009.85, 695647.42], [7700485.09, 695520.46], [7700452.02, 695511.68], [7700391.66, 695495.94], [7700315.15, 695479.11], [7700223.34, 695465.33], [7700132.89, 695462.57], [7700094.46, 695464.12], [7700014.71, 695474.95], [7699933.53, 695498.26], [7699790.58, 695545.48], [7699667.14, 695588.79], [7699488.31, 695628.87], [7699282.5, 695640.56], [7698904.36, 695646.51], [7698408.48, 695655.84], [7698347.76, 695663.99], [7698305.54, 695672.85], [7698258.32, 695685.95], [7698189.44, 695711.57], [7697818.56, 695924.25], [7697721.98, 695959.06], [7697625.41, 695977.77], [7697374.69, 696007.83], [7696818.59, 696004.3], [7696468.0, 695992.88], [7696218.35, 695982.73], [7695424.45, 695948.44], [7695314.73, 695950.55], [7695249.33, 695954.77], [7695169.15, 695967.43], [7695091.58, 695994.4], [7694426.46, 696269.15], [7694304.08, 696311.34], [7694203.89, 696336.89], [7694157.93, 696344.43], [7692802.37, 696606.17], [7691628.57, 696828.24], [7690472.11, 697014.69], [7690271.47, 697050.98], [7690126.29, 697083.75], [7689840.18, 697146.18], [7689549.2, 697199.85], [7689389.4, 697230.81], [7689178.8, 697275.18], [7688982.98, 697317.67], [7688836.32, 697356.13], [7688683.04, 697400.61], [7687514.54, 697768.48], [7687295.57, 697836.37], [7687295.57, 712000.0]]]}}]}