{"type": "FeatureCollection", "name": "gresham_rockwood_design_district", "crs": {"type": "name", "properties": {"name": "urn:ogc:def:crs:EPSG::2913"}}, "features": [{"type": "Feature", "geometry": {"type": "MultiPolygon", "coordinates": [[[[7695793.738517061, 683264.9694881886], [7695752.144685045, 683266.2604986876], [7695685.114829391, 683268.3415354341], [7695618.8251312375, 683270.4005905539], [7695479.414370075, 683274.7280183733], [7695434.8038057685, 683276.1128608882], [7695434.645669296, 683273.1049868762], [7695434.08989501, 683262.5282152295], [7695433.154855639, 683244.7417978942], [7695265.6630577445, 683247.9097768962], [7695265.187992126, 683222.6558398902], [7695263.320538059, 683123.3753280789], [7695199.307742789, 683124.8746719211], [7695188.429461941, 683125.1299212575], [7695113.521653548, 683126.8851706088], [7695102.718503937, 683127.1384514421], [7695038.599409446, 683128.6397637725], [7695007.508530185, 683129.3677821457], [7695004.760498688, 683029.4087926447], [7695004.302493438, 683012.7283464521], [7695003.597440943, 682987.0462598354], [7694999.775590554, 682992.9274934381], [7694981.658792645, 683001.6282808334], [7694956.229002625, 683004.800853014], [7694909.3270997405, 683006.3585958034], [7694908.490813643, 682981.5534776896], [7694906.004593179, 682907.5223097056], [7694905.134514436, 682881.6010498703], [7694827.185695544, 682883.3805774301], [7694752.230643049, 682885.0915354341], [7694716.021981627, 682885.9186351746], [7694690.654855639, 682886.4983595759], [7694674.274934381, 682886.8723753244], [7694621.050196856, 682888.087926507], [7694600.312992126, 682888.5606955439], [7694525.348097116, 682890.2736220509], [7694525.187992126, 682885.2746063024], [7694429.9911417365, 682887.4429133832], [7694429.6240157485, 682872.07020998], [7694335.3310367465, 682874.5748031437], [7694334.219488189, 682839.6161417365], [7694281.240485564, 682841.052821517], [7694239.73326771, 682822.1879921257], [7694226.516076118, 682822.5419947505], [7694202.541010499, 682823.1840551198], [7694146.770013124, 682824.6788057685], [7694098.171587929, 682825.9796587974], [7694073.198490813, 682826.0324803144], [7694075.999343827, 682922.300853014], [7694080.513779521, 682944.863188982], [7694050.818241477, 682945.4839238822], [7694049.289041996, 682945.5157480389], [7693137.662729666, 682964.5744750649], [7693107.246062994, 682950.1026902944], [7693111.908136487, 683087.2680446208], [7693116.02526246, 683208.3615485579], [7693084.798884511, 683208.8070866168], [7692752.075787395, 683216.9274934381], [7692750.93963255, 683176.123031497], [7692676.1788057685, 683177.8323490769], [7692637.626640424, 683178.7135826796], [7692601.206692919, 683179.5456036776], [7692524.314960629, 683181.3038057685], [7692523.523622051, 683160.818241477], [7692520.437335953, 683080.904199481], [7692515.312007874, 682951.242125988], [7692400.683070868, 682954.041010499], [7692389.859251961, 682784.0803805739], [7692389.363188982, 682775.1686351746], [7692386.856299207, 682728.7014435679], [7692383.942257211, 682674.6902887076], [7692383.7431102395, 682669.6945538074], [7692380.413713917, 682585.8959973752], [7692379.972112864, 682574.7703412026], [7692378.640748039, 682541.1584645659], [7692376.534448817, 682488.1145013124], [7692374.308727041, 682432.0524934381], [7692372.253608927, 682379.9242126048], [7692372.192913383, 682378.3953412026], [7692369.330052495, 682304.9409448802], [7692414.400590554, 682303.83989501], [7692427.061679795, 682303.5308398902], [7692433.437664047, 682303.3759842515], [7692452.448490813, 682302.912073493], [7692471.430446193, 682302.449146986], [7692484.802493438, 682302.123031497], [7692490.385170609, 682301.9872047305], [7692509.313320205, 682301.5252624601], [7692528.215223104, 682301.0633202046], [7692542.574146986, 682300.7132545859], [7692547.0889107585, 682300.6062992066], [7692565.936023623, 682300.1571522355], [7692594.587598428, 682299.4753936976], [7692711.676181108, 682296.6912729591], [7692709.19652231, 682191.6374671906], [7692708.635498688, 682167.8963254541], [7692708.000656173, 682141.0180446208], [7692705.6551837325, 682041.6929133832], [7692703.53510499, 681951.8779527545], [7692702.666666672, 681915.0885826796], [7692789.438320205, 681913.2687007934], [7692873.868766397, 681911.4986876696], [7692872.7431102395, 681856.0482283533], [7693040.453412071, 681852.8192257285], [7693039.181102365, 681806.8625328094], [7693075.029199481, 681805.6643700749], [7693105.163385823, 681804.8038057685], [7693210.111548558, 681802.4117454141], [7693212.191272959, 681877.3845144361], [7693317.152887136, 681874.9927821457], [7693422.116469815, 681872.6007217914], [7693424.4481627345, 681956.3776246756], [7693424.871062994, 681971.5748031437], [7693474.857611552, 681970.4337270409], [7693524.834645674, 681969.2906824201], [7693521.8779527545, 681863.1305774301], [7693621.841535434, 681860.845800519], [7693626.2588582635, 682019.3891076148], [7693726.218832016, 682016.8753280789], [7693806.196850389, 682015.0472441018], [7693926.152887136, 682012.3061023653], [7693924.30905512, 681946.1604330689], [7694024.278871387, 681943.8753280789], [7694124.022309706, 681941.5971128643], [7694223.993766397, 681939.3129921257], [7694228.280511811, 682105.6604330689], [7694228.9229002595, 682130.5921916068], [7694328.899278209, 682128.4301181138], [7694328.253608927, 682103.3753280789], [7694322.019356951, 681861.4104330689], [7694421.9911417365, 681859.1266404241], [7694422.533464566, 681880.1656824201], [7694522.507545933, 681877.880905509], [7694528.199475065, 682098.8077427894], [7694528.851377949, 682124.1066273004], [7694828.783792645, 682117.621062994], [7694828.121719167, 682091.9281496108], [7694823.589238852, 681916.0524934381], [7694926.511811018, 681913.1984908134], [7694986.503608927, 681911.8064304441], [7695002.230643049, 681911.4412729591], [7694998.771653548, 681806.4461942315], [7694998.69094488, 681804.0013123304], [7694992.847440943, 681626.6276246756], [7694991.2919947505, 681581.8234908134], [7695060.287401572, 681580.1128608882], [7695058.406496063, 681539.9737532735], [7695058.330380574, 681534.9786745459], [7695056.58989501, 681419.9786745459], [7695124.599409446, 681418.9484908134], [7695167.607283458, 681418.2985564321], [7695192.595144361, 681417.9206036776], [7695260.602034122, 681416.8914041966], [7695273.850065619, 681311.4025590569], [7695277.4891732335, 681282.4268372655], [7695312.357611552, 681301.9498031437], [7695336.21916011, 681311.2903543264], [7695345.276574805, 681313.8654855639], [7695348.168307081, 681314.6873359531], [7695349.021981627, 681314.9301181138], [7695389.129265085, 681326.3330052495], [7695488.771653548, 680636.4806430489], [7695499.8740157485, 680579.5088582635], [7695516.960629925, 680523.9740813673], [7695553.325459316, 680444.5875984281], [7695662.925196856, 680231.953083992], [7695709.083333328, 680231.2706692964], [7696227.121391073, 680228.0685695559], [7696487.2821522355, 680218.5442913324], [7696917.193569556, 680207.0383858234], [7697021.91141732, 680203.5574146956], [7697205.749671921, 680199.9271653593], [7697678.538713917, 680190.5915354341], [7698343.385170609, 680173.0396981686], [7698457.9209317565, 680169.5452755839], [7698589.877296582, 680165.5193569511], [7698906.496391073, 680157.5347768962], [7699330.216207355, 680146.8497375399], [7699329.785433069, 680117.0974409431], [7699328.789698169, 680048.3385826796], [7699327.243766397, 679941.5882545859], [7699323.199803144, 679662.4488188922], [7699471.078412071, 679658.4685039371], [7699611.0147637725, 679654.7034120709], [7699637.004593179, 679654.0036089271], [7699636.845800519, 679645.6085958034], [7699821.533792645, 679643.5570866168], [7699823.650590554, 679745.9025590569], [7700107.867782146, 679742.0246063024], [7700135.5360892415, 679741.6469816267], [7700134.828412071, 679697.2198162675], [7700133.916666672, 679639.9931102395], [7700135.664370075, 679639.966863513], [7700161.147309706, 679639.5803805739], [7700306.632874012, 679637.3743438274], [7700310.48326771, 679888.8441601098], [7700312.378608927, 680006.0793963224], [7700426.083989501, 679933.5285433084], [7700454.369094491, 679915.4475065619], [7700510.550853014, 679879.7355643064], [7700593.0282152295, 679827.2641076148], [7700693.140748039, 679763.5695538074], [7700955.643700793, 679596.5629921257], [7700960.6066273, 679593.406167984], [7700982.521325454, 679579.4665354341], [7700982.524278209, 679593.2244094461], [7700982.597112864, 679915.375], [7700990.799212605, 680479.7877296656], [7700998.016076118, 680976.2959317565], [7700998.03083989, 680977.3077427894], [7700998.164041996, 680986.4773622006], [7700999.712926507, 681093.0354330689], [7700973.531496063, 681093.5961286128], [7700803.100065619, 681097.246062994], [7700706.111220479, 681099.361220479], [7700607.738188982, 681101.4832677096], [7700468.480314955, 681104.4153543264], [7700468.218832016, 681079.869094491], [7700467.049212605, 680969.958989501], [7700466.921259835, 680957.9691601098], [7700320.07152231, 680961.845800519], [7700225.177165359, 680964.3507217914], [7700143.133202106, 680966.5164041966], [7700113.6551837325, 680967.2946194261], [7700113.446850389, 680971.5725065619], [7700112.964566931, 681089.052821517], [7700116.361876637, 681406.3877952695], [7700116.7801837325, 681445.4340551198], [7699928.991469815, 681451.4314304441], [7699689.142388448, 681457.947178483], [7699491.396325454, 681463.2916666716], [7699133.460629925, 681472.92979002], [7698941.284776896, 681478.1046587974], [7698950.3251312375, 681839.2818241417], [7698950.325459316, 681839.2972441018], [7698950.326115489, 681839.3188976347], [7698950.292979002, 681839.3192257285], [7698950.26673229, 681839.3195538074], [7698925.390748039, 681839.6066273004], [7698673.092191607, 681846.3284120709], [7698666.888123363, 681846.4934383184], [7698616.838254586, 681847.7936351746], [7698540.826443568, 681849.7706692964], [7698408.395013124, 681853.3648293912], [7698368.418635175, 681854.4498031437], [7698363.421259835, 681854.5830052495], [7698216.1433727, 681858.4898293912], [7698186.010498688, 681859.2887139171], [7698166.16141732, 681859.8156168014], [7698068.9698162675, 681862.3946850449], [7698019.0948162675, 681863.716863513], [7698024.140091866, 681995.5180446208], [7698027.528871387, 682084.0639763772], [7698031.744094491, 682194.2470472455], [7698033.868766397, 682249.7746063024], [7698035.206692919, 682284.718832016], [7698036.127624676, 682308.7860892415], [7698036.544619426, 682319.693241477], [7698037.883530185, 682354.6676509231], [7698039.0301837325, 682384.6459973752], [7698040.178149611, 682414.625], [7698043.362532809, 682497.8356299251], [7698043.878937006, 682511.3287401646], [7698044.394685045, 682524.8198818862], [7698045.687664047, 682558.6030183733], [7698045.2198162675, 682558.615157485], [7698035.0692257285, 682558.8786089271], [7698020.662729666, 682559.2526246756], [7698020.244750649, 682559.2634514421], [7697945.600721791, 682561.2552493513], [7697875.550524935, 682563.125], [7697805.502624676, 682564.9950787425], [7697735.458333328, 682566.8641732335], [7697665.413385823, 682568.7329396307], [7697595.36942257, 682570.6020341218], [7697525.3251312375, 682572.507874012], [7697455.2801837325, 682574.414041996], [7697450.495406821, 682574.5439632535], [7697385.23326771, 682576.3179133832], [7697315.181430444, 682578.222769022], [7697245.121062994, 682580.1181102395], [7697220.427493438, 682580.7992126048], [7697220.396981627, 682580.2037401646], [7697218.745406821, 682547.8605643064], [7697207.326115489, 682324.283136487], [7697207.267060369, 682323.125], [7697175.175524935, 682324.332020998], [7697173.28641732, 682324.4032152295], [7697050.263451442, 682329.0121391118], [7697052.981299207, 682403.9635826796], [7697055.7001312375, 682478.9150262475], [7697058.4189632535, 682553.8664698154], [7697061.1377952695, 682628.8185695559], [7697063.8566273, 682703.7696850449], [7697066.729986876, 682782.9767060429], [7697069.1610892415, 682849.9967191666], [7697069.4580052495, 682857.6017060429], [7697071.879593179, 682919.710958004], [7697074.313976377, 682982.1948818862], [7697199.242454067, 682978.251968503], [7697230.000656173, 682977.281167984], [7697230.182414696, 682993.0324803144], [7697199.8740157485, 683010.2404855639], [7697073.514435694, 683015.2365485579], [7697071.490813643, 683015.3166010529], [7696905.068241477, 683021.8969816267], [7696719.1161417365, 683029.2496719211], [7696660.544291332, 683036.578083992], [7696660.212926507, 683029.287073493], [7696659.44094488, 683012.294947505], [7696652.604330704, 682861.8375984281], [7696594.559383199, 682863.4872047305], [7696538.889435694, 682865.0708661377], [7696540.107939631, 682904.4429133832], [7696537.610892385, 682904.5239501297], [7696478.598097116, 682906.4255249351], [7696478.52526246, 682903.9363517016], [7696417.1512467265, 682905.8720472455], [7696413.097112864, 682792.9068241417], [7696412.816272959, 682784.41010499], [7696363.242782146, 682787.1043307036], [7696363.480971128, 682793.6010498703], [7696368.361876637, 682926.2532808334], [7696319.2841207385, 682928.136811018], [7696322.156496063, 683009.818241477], [7696235.071850389, 683012.1085958034], [7696202.005905509, 683012.9783464521], [7696134.992125988, 683014.7411417365], [7696117.050196856, 683015.2132545859], [7696029.927493438, 683017.5049212575], [7696022.26673229, 683017.7066929191], [7695972.8408792615, 683019.0367454141], [7695917.8838582635, 683020.5167322904], [7695906.070866138, 683020.8346456736], [7695866.25, 683021.9064960629], [7695801.335301831, 683023.6535433084], [7695786.605314955, 683024.0387139171], [7695793.738517061, 683264.9694881886]]], [[[7691301.5009842515, 682983.1351706088], [7691279.477034122, 682983.878937006], [7691282.419947505, 683101.1984908134], [7691255.051509187, 683101.2644356936], [7691182.113517061, 683103.031167984], [7691113.9737532735, 683104.6811023653], [7691055.112860888, 683106.1079396307], [7690955.144356951, 683108.5387139171], [7690855.7588582635, 683112.3805774301], [7690858.147637799, 683214.1489501297], [7690858.450787395, 683227.1486220509], [7690833.462926507, 683227.7483595759], [7690834.902230978, 683290.7824803144], [7690836.57152231, 683363.8169291317], [7690837.586614177, 683408.2388451397], [7690838.28641732, 683438.843832016], [7690840.063976377, 683516.611220479], [7690842.230314955, 683611.3799212575], [7690843.716863513, 683676.3674540669], [7690844.253608927, 683699.8608923852], [7690788.0518372655, 683701.2145669311], [7690727.080380574, 683702.6856955439], [7690666.108595803, 683704.1555118114], [7690666.585629925, 683719.1528871357], [7690606.230314955, 683771.6653543264], [7690609.419291332, 683871.6223753244], [7690617.997703418, 683921.4429133832], [7690621.183727041, 684021.4071522355], [7690546.21916011, 684023.121062994], [7690542.21916011, 684023.2122703344], [7690452.297572181, 684026.501968503], [7690361.360892385, 684029.1853674501], [7690167.4737532735, 684034.9009186327], [7690163.481955379, 683909.8969816267], [7690161.486876637, 683847.4281496108], [7690159.489829391, 683784.8930446208], [7690157.496062994, 683722.4242126048], [7690155.4990157485, 683659.8891076148], [7690151.507874012, 683534.8841863573], [7690147.516076118, 683409.878937006], [7690143.524934381, 683284.875], [7690139.532808393, 683159.871062994], [7690135.544947505, 683034.9350393713], [7690130.1220472455, 682865.1322178543], [7690126.142060369, 682745.169947505], [7690121.906824142, 682612.626968503], [7690118.7139107585, 682512.6781496108], [7690114.718832016, 682387.658136487], [7690110.725065619, 682262.6381233633], [7690106.729986876, 682137.617125988], [7690102.735892385, 682012.5971128643], [7690252.703083992, 682008.53510499], [7690387.677821517, 682004.8812336028], [7690439.859251961, 682003.4678477645], [7690443.516076118, 682165.0144356936], [7690482.914370075, 682165.7080052495], [7690632.465551183, 682162.4819553792], [7690635.507545933, 682162.416010499], [7690662.517388448, 682161.833989501], [7690833.543635175, 682158.1450131238], [7691045.989501312, 682153.5623359531], [7691070.982283458, 682153.0232939571], [7691233.435695544, 682149.5187007934], [7691260.056102365, 682149.2762467265], [7691264.5928477645, 682354.1794619411], [7691238.198818892, 682355.4835958034], [7691213.126640424, 682356.0885826796], [7691153.150590554, 682357.5406824201], [7691133.158792645, 682358.0246063024], [7691019.2040682435, 682360.7818241417], [7690946.234251961, 682362.546916008], [7690838.355643049, 682365.158136487], [7690839.108595803, 682397.5242782086], [7690842.611220479, 682548.1459973752], [7690843.122375324, 682570.1020341218], [7690975.231955379, 682566.9048556387], [7691007.125, 682566.1338582635], [7691067.102034122, 682564.6833989471], [7691127.078083992, 682563.2312992066], [7691242.938320205, 682560.4274934381], [7691266.358923882, 682559.8605643064], [7691266.494750649, 682747.9931102395], [7691268.303149611, 682765.755905509], [7691276.429133862, 682765.3779527545], [7691712.535433069, 682751.9340551198], [7691715.723097116, 682797.007874012], [7691726.848425195, 682954.2785433084], [7691727.9150262475, 682969.2621391118], [7691723.151574805, 682968.8986220509], [7691301.5009842515, 682983.1351706088]]]]}, "properties": {"name": "Rockwood", "source": "City of Gresham GIS, Planning/MapServer layer 11 (Design Districts), Name = Rockwood, fetched 2026-10-08"}}]}